ONEWEB-0661             
1 55821U 23029AB  24037.73657475 -.00000172  00000+0 -49717-3 0  9999
2 55821  87.8950 101.2125 0002412 105.9629 254.1767 13.14501443 46214
ONEWEB-0662             
1 55822U 23029AC  24037.69534830  .00000335  00000+0  86874-3 0  9998
2 55822  87.8948 101.2288 0002300  96.6292 263.5099 13.14502749 46256
ONEWEB-0663             
1 55823U 23029AD  24038.37337658  .00000143  00000+0  31943-3 0  9998
2 55823  87.9151  85.8064 0002382  96.7870 263.3535 13.20771538 48195
ONEWEB-0664             
1 55824U 23029AE  24037.68524610  .00000055  00000+0  10225-3 0  9990
2 55824  87.9155  85.9558 0002199 111.9707 248.1660 13.20771640 47423
ONEWEB-0665             
1 55825U 23029AF  24037.65728324 -.00000205  00000+0 -58838-3 0  9997
2 55825  87.8950 101.2035 0002318 102.6495 257.4894 13.14501672 46916
ONEWEB-0666             
1 55826U 23029AG  24037.67891738  .00000028  00000+0  37347-4 0  9994
2 55826  87.9152  85.9486 0001448 104.3048 255.8246 13.20772837 47437
ONEWEB-0667             
1 55827U 23029AH  24037.67261799 -.00000012  00000+0 -60472-4 0  9993
2 55827  87.9152  85.8836 0002223 101.2805 258.8578 13.20771468 47424
ONEWEB-0669             
1 55828U 23029AJ  24037.66787225  .00000034  00000+0  51144-4 0  9998
2 55828  87.9151  85.9230 0001701 125.3529 234.7764 13.20769482 47426
