<?xml version="1.0" encoding="UTF-8"?>
<ndm xmlns:xsi="http://www.w3.org/2001/XMLSchema-instance" xsi:noNamespaceSchemaLocation="https://sanaregistry.org/r/ndmxml_unqualified/ndmxml-2.0.0-master-2.0.xsd">
<omm id="CCSDS_OMM_VERS" version="2.0">
<header><CREATION_DATE/><ORIGINATOR/></header><body><segment><metadata><OBJECT_NAME>ONEWEB-0661</OBJECT_NAME><OBJECT_ID>2023-029AB</OBJECT_ID><CENTER_NAME>EARTH</CENTER_NAME><REF_FRAME>TEME</REF_FRAME><TIME_SYSTEM>UTC</TIME_SYSTEM><MEAN_ELEMENT_THEORY>SGP4</MEAN_ELEMENT_THEORY></metadata><data><meanElements><EPOCH>2024-02-06T17:40:40.058400</EPOCH><MEAN_MOTION>13.14501443</MEAN_MOTION><ECCENTRICITY>.0002412</ECCENTRICITY><INCLINATION>87.8950</INCLINATION><RA_OF_ASC_NODE>101.2125</RA_OF_ASC_NODE><ARG_OF_PERICENTER>105.9629</ARG_OF_PERICENTER><MEAN_ANOMALY>254.1767</MEAN_ANOMALY></meanElements><tleParameters><EPHEMERIS_TYPE>0</EPHEMERIS_TYPE><CLASSIFICATION_TYPE>U</CLASSIFICATION_TYPE><NORAD_CAT_ID>55821</NORAD_CAT_ID><ELEMENT_SET_NO>999</ELEMENT_SET_NO><REV_AT_EPOCH>4621</REV_AT_EPOCH><BSTAR>-.49717E-3</BSTAR><MEAN_MOTION_DOT>-.172E-5</MEAN_MOTION_DOT><MEAN_MOTION_DDOT>0</MEAN_MOTION_DDOT></tleParameters></data></segment></body></omm>
<omm id="CCSDS_OMM_VERS" version="2.0">
<header><CREATION_DATE/><ORIGINATOR/></header><body><segment><metadata><OBJECT_NAME>ONEWEB-0662</OBJECT_NAME><OBJECT_ID>2023-029AC</OBJECT_ID><CENTER_NAME>EARTH</CENTER_NAME><REF_FRAME>TEME</REF_FRAME><TIME_SYSTEM>UTC</TIME_SYSTEM><MEAN_ELEMENT_THEORY>SGP4</MEAN_ELEMENT_THEORY></metadata><data><meanElements><EPOCH>2024-02-06T16:41:18.093120</EPOCH><MEAN_MOTION>13.14502749</MEAN_MOTION><ECCENTRICITY>.00023</ECCENTRICITY><INCLINATION>87.8948</INCLINATION><RA_OF_ASC_NODE>101.2288</RA_OF_ASC_NODE><ARG_OF_PERICENTER>96.6292</ARG_OF_PERICENTER><MEAN_ANOMALY>263.5099</MEAN_ANOMALY></meanElements><tleParameters><EPHEMERIS_TYPE>0</EPHEMERIS_TYPE><CLASSIFICATION_TYPE>U</CLASSIFICATION_TYPE><NORAD_CAT_ID>55822</NORAD_CAT_ID><ELEMENT_SET_NO>999</ELEMENT_SET_NO><REV_AT_EPOCH>4625</REV_AT_EPOCH><BSTAR>.86874E-3</BSTAR><MEAN_MOTION_DOT>.335E-5</MEAN_MOTION_DOT><MEAN_MOTION_DDOT>0</MEAN_MOTION_DDOT></tleParameters></data></segment></body></omm>
<omm id="CCSDS_OMM_VERS" version="2.0">
<header><CREATION_DATE/><ORIGINATOR/></header><body><segment><metadata><OBJECT_NAME>ONEWEB-0663</OBJECT_NAME><OBJECT_ID>2023-029AD</OBJECT_ID><CENTER_NAME>EARTH</CENTER_NAME><REF_FRAME>TEME</REF_FRAME><TIME_SYSTEM>UTC</TIME_SYSTEM><MEAN_ELEMENT_THEORY>SGP4</MEAN_ELEMENT_THEORY></metadata><data><meanElements><EPOCH>2024-02-07T08:57:39.736512</EPOCH><MEAN_MOTION>13.20771538</MEAN_MOTION><ECCENTRICITY>.0002382</ECCENTRICITY><INCLINATION>87.9151</INCLINATION><RA_OF_ASC_NODE>85.8064</RA_OF_ASC_NODE><ARG_OF_PERICENTER>96.7870</ARG_OF_PERICENTER><MEAN_ANOMALY>263.3535</MEAN_ANOMALY></meanElements><tleParameters><EPHEMERIS_TYPE>0</EPHEMERIS_TYPE><CLASSIFICATION_TYPE>U</CLASSIFICATION_TYPE><NORAD_CAT_ID>55823</NORAD_CAT_ID><ELEMENT_SET_NO>999</ELEMENT_SET_NO><REV_AT_EPOCH>4819</REV_AT_EPOCH><BSTAR>.31943E-3</BSTAR><MEAN_MOTION_DOT>.143E-5</MEAN_MOTION_DOT><MEAN_MOTION_DDOT>0</MEAN_MOTION_DDOT></tleParameters></data></segment></body></omm>
<omm id="CCSDS_OMM_VERS" version="2.0">
<header><CREATION_DATE/><ORIGINATOR/></header><body><segment><metadata><OBJECT_NAME>ONEWEB-0664</OBJECT_NAME><OBJECT_ID>2023-029AE</OBJECT_ID><CENTER_NAME>EARTH</CENTER_NAME><REF_FRAME>TEME</REF_FRAME><TIME_SYSTEM>UTC</TIME_SYSTEM><MEAN_ELEMENT_THEORY>SGP4</MEAN_ELEMENT_THEORY></metadata><data><meanElements><EPOCH>2024-02-06T16:26:45.263040</EPOCH><MEAN_MOTION>13.20771640</MEAN_MOTION><ECCENTRICITY>.0002199</ECCENTRICITY><INCLINATION>87.9155</INCLINATION><RA_OF_ASC_NODE>85.9558</RA_OF_ASC_NODE><ARG_OF_PERICENTER>111.9707</ARG_OF_PERICENTER><MEAN_ANOMALY>248.1660</MEAN_ANOMALY></meanElements><tleParameters><EPHEMERIS_TYPE>0</EPHEMERIS_TYPE><CLASSIFICATION_TYPE>U</CLASSIFICATION_TYPE><NORAD_CAT_ID>55824</NORAD_CAT_ID><ELEMENT_SET_NO>999</ELEMENT_SET_NO><REV_AT_EPOCH>4742</REV_AT_EPOCH><BSTAR>.10225E-3</BSTAR><MEAN_MOTION_DOT>.55E-6</MEAN_MOTION_DOT><MEAN_MOTION_DDOT>0</MEAN_MOTION_DDOT></tleParameters></data></segment></body></omm>
<omm id="CCSDS_OMM_VERS" version="2.0">
<header><CREATION_DATE/><ORIGINATOR/></header><body><segment><metadata><OBJECT_NAME>ONEWEB-0665</OBJECT_NAME><OBJECT_ID>2023-029AF</OBJECT_ID><CENTER_NAME>EARTH</CENTER_NAME><REF_FRAME>TEME</REF_FRAME><TIME_SYSTEM>UTC</TIME_SYSTEM><MEAN_ELEMENT_THEORY>SGP4</MEAN_ELEMENT_THEORY></metadata><data><meanElements><EPOCH>2024-02-06T15:46:29.271936</EPOCH><MEAN_MOTION>13.14501672</MEAN_MOTION><ECCENTRICITY>.0002318</ECCENTRICITY><INCLINATION>87.8950</INCLINATION><RA_OF_ASC_NODE>101.2035</RA_OF_ASC_NODE><ARG_OF_PERICENTER>102.6495</ARG_OF_PERICENTER><MEAN_ANOMALY>257.4894</MEAN_ANOMALY></meanElements><tleParameters><EPHEMERIS_TYPE>0</EPHEMERIS_TYPE><CLASSIFICATION_TYPE>U</CLASSIFICATION_TYPE><NORAD_CAT_ID>55825</NORAD_CAT_ID><ELEMENT_SET_NO>999</ELEMENT_SET_NO><REV_AT_EPOCH>4691</REV_AT_EPOCH><BSTAR>-.58838E-3</BSTAR><MEAN_MOTION_DOT>-.205E-5</MEAN_MOTION_DOT><MEAN_MOTION_DDOT>0</MEAN_MOTION_DDOT></tleParameters></data></segment></body></omm>
<omm id="CCSDS_OMM_VERS" version="2.0">
<header><CREATION_DATE/><ORIGINATOR/></header><body><segment><metadata><OBJECT_NAME>ONEWEB-0666</OBJECT_NAME><OBJECT_ID>2023-029AG</OBJECT_ID><CENTER_NAME>EARTH</CENTER_NAME><REF_FRAME>TEME</REF_FRAME><TIME_SYSTEM>UTC</TIME_SYSTEM><MEAN_ELEMENT_THEORY>SGP4</MEAN_ELEMENT_THEORY></metadata><data><meanElements><EPOCH>2024-02-06T16:17:38.461632</EPOCH><MEAN_MOTION>13.20772837</MEAN_MOTION><ECCENTRICITY>.0001448</ECCENTRICITY><INCLINATION>87.9152</INCLINATION><RA_OF_ASC_NODE>85.9486</RA_OF_ASC_NODE><ARG_OF_PERICENTER>104.3048</ARG_OF_PERICENTER><MEAN_ANOMALY>255.8246</MEAN_ANOMALY></meanElements><tleParameters><EPHEMERIS_TYPE>0</EPHEMERIS_TYPE><CLASSIFICATION_TYPE>U</CLASSIFICATION_TYPE><NORAD_CAT_ID>55826</NORAD_CAT_ID><ELEMENT_SET_NO>999</ELEMENT_SET_NO><REV_AT_EPOCH>4743</REV_AT_EPOCH><BSTAR>.37347E-4</BSTAR><MEAN_MOTION_DOT>.28E-6</MEAN_MOTION_DOT><MEAN_MOTION_DDOT>0</MEAN_MOTION_DDOT></tleParameters></data></segment></body></omm>
<omm id="CCSDS_OMM_VERS" version="2.0">
<header><CREATION_DATE/><ORIGINATOR/></header><body><segment><metadata><OBJECT_NAME>ONEWEB-0667</OBJECT_NAME><OBJECT_ID>2023-029AH</OBJECT_ID><CENTER_NAME>EARTH</CENTER_NAME><REF_FRAME>TEME</REF_FRAME><TIME_SYSTEM>UTC</TIME_SYSTEM><MEAN_ELEMENT_THEORY>SGP4</MEAN_ELEMENT_THEORY></metadata><data><meanElements><EPOCH>2024-02-06T16:08:34.194336</EPOCH><MEAN_MOTION>13.20771468</MEAN_MOTION><ECCENTRICITY>.0002223</ECCENTRICITY><INCLINATION>87.9152</INCLINATION><RA_OF_ASC_NODE>85.8836</RA_OF_ASC_NODE><ARG_OF_PERICENTER>101.2805</ARG_OF_PERICENTER><MEAN_ANOMALY>258.8578</MEAN_ANOMALY></meanElements><tleParameters><EPHEMERIS_TYPE>0</EPHEMERIS_TYPE><CLASSIFICATION_TYPE>U</CLASSIFICATION_TYPE><NORAD_CAT_ID>55827</NORAD_CAT_ID><ELEMENT_SET_NO>999</ELEMENT_SET_NO><REV_AT_EPOCH>4742</REV_AT_EPOCH><BSTAR>-.60472E-4</BSTAR><MEAN_MOTION_DOT>-.12E-6</MEAN_MOTION_DOT><MEAN_MOTION_DDOT>0</MEAN_MOTION_DDOT></tleParameters></data></segment></body></omm>
<omm id="CCSDS_OMM_VERS" version="2.0">
<header><CREATION_DATE/><ORIGINATOR/></header><body><segment><metadata><OBJECT_NAME>ONEWEB-0669</OBJECT_NAME><OBJECT_ID>2023-029AJ</OBJECT_ID><CENTER_NAME>EARTH</CENTER_NAME><REF_FRAME>TEME</REF_FRAME><TIME_SYSTEM>UTC</TIME_SYSTEM><MEAN_ELEMENT_THEORY>SGP4</MEAN_ELEMENT_THEORY></metadata><data><meanElements><EPOCH>2024-02-06T16:01:44.162400</EPOCH><MEAN_MOTION>13.20769482</MEAN_MOTION><ECCENTRICITY>.0001701</ECCENTRICITY><INCLINATION>87.9151</INCLINATION><RA_OF_ASC_NODE>85.9230</RA_OF_ASC_NODE><ARG_OF_PERICENTER>125.3529</ARG_OF_PERICENTER><MEAN_ANOMALY>234.7764</MEAN_ANOMALY></meanElements><tleParameters><EPHEMERIS_TYPE>0</EPHEMERIS_TYPE><CLASSIFICATION_TYPE>U</CLASSIFICATION_TYPE><NORAD_CAT_ID>55828</NORAD_CAT_ID><ELEMENT_SET_NO>999</ELEMENT_SET_NO><REV_AT_EPOCH>4742</REV_AT_EPOCH><BSTAR>.51144E-4</BSTAR><MEAN_MOTION_DOT>.34E-6</MEAN_MOTION_DOT><MEAN_MOTION_DDOT>0</MEAN_MOTION_DDOT></tleParameters></data></segment></body></omm>

</ndm>
